P/2015 T3 (PANSTARRS),e,13.0937,120.5019,178.6330,4.326181,0.1095335,0.50818108,359.9227,12/21.0/2014,2000,g 14.0,4.0
# From MPC102953
C/2015 T4 (PANSTARRS),e,87.9626,251.7995,270.0566,80.52503,0.0013640,0.97147748,0.0000,06/17.5931/2016,2000,g 11.0,4.0
# From MPC102097
C/2015 T5 (Sheppard-Tholen),e,11.0490,311.0812,61.7913,28.05185,0.0066338,0.66731673,9.5402,12/30.0/2019,2000,g  7.5,4.0
# From MPC102953
P/2015 TO19 (Lemmon-PANSTARRS),e,6.4993,321.6426,89.2114,4.557904,0.1012876,0.35773155,141.2406,12/30.0/2019,2000,g 14.0,4.0
# From MPC110080
P/2015 TP200 (LINEAR),e,8.7729,6.9799,82.7355,7.283752,0.0501385,0.53493788,58.0825,12/30.0/2019,2000,g 11.0,4.0
# From MPC101097
C/2015 TQ209 (LINEAR),e,11.3104,223.4301,282.1087,717.4149,0.0000513,0.99802757,0.0000,08/26.4998/2016,2000,g 10.5,4.0
# From MPC115881
C/2015 V1 (PANSTARRS),e,139.2234,197.1872,179.6175,5233,0.0000026,0.99918452,0.0000,12/17.4050/2017,2000,g  6.5,4.0
# From MPC112390
C/2015 V2 (Johnson),h,06/12.2219/2017,49.8737,69.8546,164.9721,1.001830,1.640577,2000,5.0,4.0
# From MPC102953
C/2015 V3 (PANSTARRS),e,86.2391,2.2669,0.7092,627.4798,0.0000627,0.99325651,0.0000,11/24.0088/2015,2000,g  9.0,4.0
# From MPC104791
C/2015 V4 (PANSTARRS),e,60.7609,179.9112,307.0545,18.51092,0.0123755,0.70483314,15.0744,12/30.0/2019,2000,g  8.5,4.0
# From MPC115881
C/2015 VL62 (Lemmon-Yeung-PANSTARRS),h,08/28.1145/2017,165.8151,95.0895,128.7224,1.001185,2.713598,2000,8.0,4.0
# From MPC102098
C/2015 WZ (PANSTARRS),e,134.5604,40.1362,66.6536,146.4899,0.0005559,0.99059874,0.0000,04/14.1092/2016,2000,g 15.0,4.0
# From MPC109142
C/2015 W1 (Gibbs),h,05/15.6046/2016,87.3716,114.3161,48.1970,1.000209,2.240764,2000,13.0,4.0
# From MPC101098
P/2015 W2 (Catalina),e,11.6069,294.2518,117.5753,7.302091,0.0499497,0.63330936,77.5184,12/30.0/2019,2000,g 13.0,4.0
# From MPC101098
P/2015 X1 (PANSTARRS),e,12.1519,161.7756,218.9949,3.630477,0.1424815,0.41892505,219.9900,12/30.0/2019,2000,g 16.0,4.0
# From MPC118840
C/2015 XY1 (Lemmon),h,04/28.7716/2018,148.8556,281.6254,196.2882,1.004002,7.926267,2000,5.5,4.0
# From MPC100281
C/2015 X2 (Catalina),e,72.1045,101.1011,42.3722,15.83915,0.0156353,0.87839101,23.0118,12/30.0/2019,2000,g 16.0,4.0
# From MPC 97498
P/2015 X3 (PANSTARRS),e,24.3823,77.3342,306.6718,5.012328,0.0878304,0.43811778,141.0471,12/30.0/2019,2000,g 15.0,4.0
# From MPC109142
C/2015 X4 (Elenin),e,29.5006,262.6220,176.2770,17.97228,0.0129360,0.81119681,19.6439,12/30.0/2019,2000,g 10.0,4.0
# From MPC118840
C/2015 X5 (PANSTARRS),h,12/30.2872/2017,124.3076,122.3411,27.7104,1.002994,6.799925,2000,7.5,4.0
# From MPC115881
P/2015 X6 (PANSTARRS),e,4.5648,106.9472,329.8997,2.752401,0.2158423,0.17229706,296.9216,12/30.0/2019,2000,g 16.0,4.0
# From MPC109143
C/2015 X7 (ATLAS),h,07/29.6155/2016,57.5628,139.9072,348.4660,1.000342,3.685341,2000,9.0,4.0
# From MPC107048
C/2015 X8 (NEOWISE),e,155.2174,191.1483,20.4315,19.76617,0.0112155,0.93996469,17.1363,12/30.0/2019,2000,g 16.0,4.0
# From MPC109143
C/2015 Y1 (LINEAR),e,71.1763,135.8109,24.6973,257.2888,0.0002388,0.99021962,0.0000,05/14.3969/2016,2000,g 12.0,4.0
# From MPC105543
C/2015 YG1 (NEOWISE),e,57.2725,350.5192,102.5314,17.01462,0.0140433,0.87854283,21.8263,12/30.0/2019,2000,g 13.0,4.0
# From MPC118840
C/2016 A1 (PANSTARRS),h,11/23.0866/2017,121.2044,128.1992,10.2956,1.002052,5.326046,2000,6.0,4.0
# From MPC100282
P/2016 A2 (Christensen),e,26.4061,291.6163,141.6567,4.748251,0.0952585,0.27153631,157.2963,12/30.0/2019,2000,g 11.5,4.0
# From MPC115881
P/2016 A3 (PANSTARRS),e,8.5143,187.3566,340.6900,7.886326,0.0445033,0.38839655,43.3877,12/30.0/2019,2000,g 10.0,4.0
# From MPC109143
C/2016 A5 (PANSTARRS),e,40.2397,136.1644,321.5526,676.0884,0.0000561,0.99564384,0.0000,06/26.8542/2015,2000,g 13.5,4.0
# From MPC109143
C/2016 A6 (PANSTARRS),e,120.9356,300.3644,141.0822,207.5459,0.0003296,0.98840098,0.0000,11/06.2796/2015,2000,g 15.0,4.0
# From MPC102098
P/2016 A7 (PANSTARRS),e,16.6306,221.4736,352.6257,5.030018,0.0873675,0.56579982,122.6271,12/30.0/2019,2000,g 16.0,4.0
# From MPC106345
C/2016 A8 (LINEAR),e,148.2431,111.3379,130.3540,34.28165,0.0049103,0.94502869,5.9775,12/30.0/2019,2000,g 12.0,4.0
# From MPC107048
C/2016 B1 (NEOWISE),e,50.4697,231.9699,8.6604,439.5505,0.0001070,0.99269270,0.0000,12/04.8407/2016,2000,g  9.5,4.0
# From MPC109143
P/2016 BA14 (PANSTARRS),e,18.8986,180.5380,351.9122,3.023941,0.1874321,0.66530956,259.6650,12/30.0/2019,2000,g 21.0,4.0
# From MPC110494
C/2016 C1 (PANSTARRS),h,02/19.3982/2016,56.2102,181.7965,328.7857,1.002761,8.467181,2000,5.5,4.0
# From MPC101098
C/2016 C2 (NEOWISE),e,38.1000,24.4208,214.5250,65.85972,0.0018441,0.97623689,0.0000,04/19.6420/2016,2000,g 16.0,4.0
# From MPC110494
C/2016 E1 (PANSTARRS),h,06/03.8859/2017,131.8923,233.0525,47.4501,1.005271,8.179614,2000,6.5,4.0
# From MPC 99821
C/2016 E2 (Kowalski),e,135.9167,186.8102,321.9073,139.3493,0.0005992,0.99227534,0.0000,02/06.6848/2016,2000,g 20.0,4.0
# From MPC102098
P/2016 G1 (PANSTARRS),e,10.9690,204.0595,111.2983,2.582327,0.2375130,0.21087627,253.4747,12/30.0/2019,2000,g 14.0,4.0
# From MPEC 2017-D91
P/2016 J1-A (PANSTARRS),e,14.3249,199.8354,46.8440,3.174333,0.1742711,0.22823182,223.5270,12/30.0/2019,2000,g 16.5,4.0
# From MPEC 2017-A77
P/2016 J1-B (PANSTARRS),e,14.3277,199.8403,46.7352,3.173963,0.1743016,0.22808306,223.6408,12/30.0/2019,2000,g 17.0,4.0
# From MPC101099
C/2016 J2 (Denneau),e,130.3408,186.3261,318.6141,622.2380,0.0000635,0.99755521,0.0000,04/12.0219/2016,2000,g 17.0,4.0
# From MPC102099
C/2016 KA (Catalina),e,104.6750,317.5129,63.1814,4716,0.0000030,0.99885374,0.0000,02/02.0206/2016,2000,g  8.5,4.0
# From MPC104792
C/2016 K1 (LINEAR),e,90.9052,325.6377,18.2650,13288,0.0000006,0.99982743,0.0000,07/13.2605/2016,2000,g 13.0,4.0
# From MPC118840
C/2016 M1 (PANSTARRS),e,91.0006,92.2027,209.8586,3101,0.0000057,0.99928691,0.0000,08/10.2463/2018,2000,g  5.0,4.0
# From MPC115881
C/2016 N4 (MASTER),e,72.5823,354.0070,55.9416,2396,0.0000084,0.99866502,0.0000,09/16.4624/2017,2000,g  8.5,4.0
# From MPC118092
C/2016 N6 (PANSTARRS),e,105.8403,298.9854,162.7806,1925,0.0000117,0.99861422,0.0000,07/18.1466/2018,2000,g  7.0,4.0
# From MPC102099
P/2016 P1 (PANSTARRS),e,24.4531,319.5659,270.0331,3.195123,0.1725730,0.28941426,268.8785,12/30.0/2019,2000,g 15.0,4.0
# From MPC102099
C/2016 P4 (PANSTARRS),e,29.8821,320.7449,356.1282,387.2896,0.0001293,0.98478780,0.0000,10/17.6966/2016,2000,g 10.5,4.0
# From MPC118093
C/2016 Q2 (PANSTARRS),e,109.3906,322.3012,84.4795,11133,0.0000008,0.99936377,0.0000,05/11.2948/2021,2000,g  6.0,4.0
# From MPC102955
C/2016 Q4 (Kowalski),e,7.2577,271.2843,99.3880,16.88160,0.0142097,0.58028800,9.9822,12/30.0/2019,2000,g  7.0,4.0
# From MPC117069
C/2016 R2 (PANSTARRS),e,58.2248,80.5696,33.1914,592.3917,0.0000684,0.99560593,0.0000,05/09.4497/2018,2000,g  7.0,4.0
# From MPC102099
C/2016 R3 (Borisov),e,53.0445,78.6419,118.1856,200.3734,0.0003475,0.99774990,0.0000,10/10.6189/2016,2000,g 18.0,4.0
# From MPC109144
P/2016 R4 (Gibbs),e,10.8669,168.2928,173.9912,5.331825,0.0800553,0.47581744,100.6346,12/30.0/2019,2000,g 12.5,4.0
# From MPC105543
P/2016 S1 (PANSTARRS),e,94.6470,227.5159,273.2674,8.280823,0.0413613,0.71028999,42.1282,12/30.0/2019,2000,g 12.0,4.0
# From MPC105238
C/2016 T1 (Matheny),e,129.8454,56.2668,137.3743,123.1112,0.0007215,0.98129893,0.0000,02/01.3028/2017,2000,g 14.5,4.0
# From MPC107685
C/2016 T2 (Matheny),e,81.3545,339.1384,92.2590,99.19482,0.0009976,0.98077108,0.0000,12/28.9737/2016,2000,g 14.5,4.0
# From MPC110082
C/2016 T3 (PANSTARRS),e,22.6771,271.7424,194.6929,135.1955,0.0006270,0.98039323,0.0000,09/06.7031/2017,2000,g 10.5,4.0
# From MPC103847
C/2016 U1 (NEOWISE),h,01/14.0374/2017,46.4117,61.4469,162.8284,1.000391,0.321285,2000,17.0,4.0
# From MPC106345
C/2016 VZ18 (PANSTARRS),e,24.0120,98.9252,36.3994,173.8668,0.0004299,0.99475206,0.0000,03/06.6067/2017,2000,g 19.5,4.0
# From MPC106345
P/2016 WM48 (Lemmon),e,117.4240,59.9018,36.0986,8.173606,0.0421778,0.78422872,43.8010,12/30.0/2019,2000,g 15.0,4.0
# From MPC118840
C/2016 X1 (Lemmon),e,26.4550,256.4238,224.5357,1484,0.0000172,0.99490376,0.0000,04/29.3592/2019,2000,g  6.0,4.0
# From MPC108594
C/2017 A1 (PANSTARRS),e,49.7942,121.0406,2.0732,77.65879,0.0014402,0.97048239,0.0000,05/16.6288/2017,2000,g 13.0,4.0
# From MPC108594
C/2017 A3 (Elenin),e,98.5373,97.9078,304.0643,43.49637,0.0034358,0.91146293,3.6532,12/30.0/2019,2000,g  9.5,4.0
# From MPC114598
C/2017 AB5 (PANSTARRS),e,32.4332,42.6670,78.3660,3122,0.0000056,0.99704875,0.0000,02/16.6865/2018,2000,g  5.5,4.0
# From MPC118840
C/2017 B3 (LINEAR),h,02/02.6137/2019,54.1771,2.1788,284.7716,1.002001,3.921556,2000,6.0,4.0
# From MPC103847
P/2017 B4 (PANSTARRS),e,20.0584,121.4578,11.0197,4.410520,0.1064068,0.36495152,359.9130,01/05.0/2017,2000,g 14.5,4.0
# From MPC104793
C/2017 C1 (NEOWISE),e,65.7402,357.4795,110.1399,20.63129,0.0105175,0.92723563,11.3114,12/30.0/2019,2000,g 18.0,4.0
# From MPC107685
C/2017 C2 (PANSTARRS),e,118.5898,249.8157,138.6748,97.65144,0.0010214,0.97515565,0.0000,01/21.6207/2017,2000,g 14.0,4.0
# From MPC104793
P/2017 D1 (Fuls),e,20.7622,82.1760,8.1133,4.829278,0.0928711,0.43704892,119.0230,12/30.0/2019,2000,g 14.0,4.0
# From MPC112391
C/2017 D2 (Barros),e,31.2565,330.9907,334.4337,2679,0.0000071,0.99907146,0.0000,07/14.7747/2017,2000,g 11.0,4.0
# From MPC114598
C/2017 D3 (ATLAS),h,04/27.1727/2017,125.5741,186.6422,340.8442,1.001888,4.973900,2000,8.0,4.0
# From MPC110495
P/2017 D4 (PANSTARRS),e,10.5302,264.9372,212.3303,7.571264,0.0473098,0.62893769,57.2180,12/30.0/2019,2000,g 13.0,4.0
# From MPC104794
C/2017 D5 (PANSTARRS),e,131.0598,92.7365,287.8035,114.9893,0.0007993,0.98117970,0.0000,01/09.2513/2017,2000,g 16.0,4.0
# From MPC106346
C/2017 E1 (Borisov),h,04/10.4330/2017,14.5637,142.6241,152.5955,1.002945,0.900492,2000,14.0,4.0
# From MPC109144
C/2017 E2 (Tsuchinshan),e,79.0306,11.5700,89.3934,21.55032,0.0098520,0.89088093,13.0775,12/30.0/2019,2000,g 11.5,4.0
# From MPC115882
C/2017 E3 (PANSTARRS),h,06/08.2136/2017,70.6233,220.7269,334.5114,1.007215,5.936339,2000,6.5,4.0
